STARLINK-36738          
1 67865U 26034R   26067.89852053  .00241694  00000+0  11883-2 0  9996
2 67865  53.1588 215.1882 0000919  91.3222 268.7906 15.80978536  3811
STARLINK-36780          
1 67866U 26034S   26067.89777341  .00369147  00000+0  17838-2 0  9993
2 67866  53.1592 215.1820 0001110 109.8030 250.3112 15.81008541  3812
STARLINK-36761          
1 67867U 26034T   26067.89701887  .00276896  00000+0  13541-2 0  9991
2 67867  53.1596 215.1774 0000810  98.3071 261.8043 15.80998449  3812
STARLINK-36762          
1 67868U 26034U   26067.89626826  .00336798  00000+0  16332-2 0  9990
2 67868  53.1592 215.1731 0000989 105.8890 254.2242 15.81018585  3814
STARLINK-36779          
1 67869U 26034V   26067.89551938  .00368933  00000+0  17818-2 0  9998
2 67869  53.1592 215.1675 0000928  82.9006 277.2122 15.81021469  3816
STARLINK-36770          
1 67870U 26034W   26067.83080196  .00314290  00000+0  15300-2 0  9998
2 67870  53.1596 215.4738 0001538  77.1095 283.0100 15.80994863  3803
STARLINK-36769          
1 67871U 26034X   26067.89477084  .00337504  00000+0  16376-2 0  9998
2 67871  53.1595 215.1621 0001005  32.9143 327.1942 15.81003944  3810
STARLINK-36786          
1 67872U 26034Y   26067.89327243  .00226941  00000+0  11187-2 0  9997
2 67872  53.1598 215.1525 0001443  74.0327 286.0855 15.80963250  3814
STARLINK-36783          
1 67873U 26034Z   26067.89251944  .00284059  00000+0  13883-2 0  9991
2 67873  53.1595 215.1467 0000811 106.2526 253.8587 15.80991855  3810
STARLINK-36730          
1 67874U 26034AA  26067.89176895  .00367705  00000+0  17763-2 0  9994
2 67874  53.1596 215.1421 0001345  46.6952 313.4182 15.81020028  3815
STARLINK-36727          
1 67875U 26034AB  26067.89101914  .00345704  00000+0  16754-2 0  9999
2 67875  53.1597 215.1364 0001121  50.3906 309.7215 15.81008674  3814
STARLINK-36743          
1 67876U 26034AC  26067.89027061  .00206750  00000+0  10223-2 0  9992
2 67876  53.1601 215.1310 0000992  73.4545 286.6587 15.80954822  3811
