CCSDS_OMM_VERS = 2.0
CREATION_DATE  = 
ORIGINATOR     = 

OBJECT_NAME    = STARLINK-36738
OBJECT_ID      = 2026-034R
CENTER_NAME    = EARTH
REF_FRAME      = TEME
TIME_SYSTEM    = UTC
MEAN_ELEMENT_THEORY = SGP/SGP4

EPOCH          = 2026-03-08T21:33:52.173792
MEAN_MOTION    = 15.80978536
ECCENTRICITY   = .00009193
INCLINATION    = 53.1588
RA_OF_ASC_NODE = 215.1882
ARG_OF_PERICENTER = 91.3222
MEAN_ANOMALY   = 268.7906

EPHEMERIS_TYPE = 0
CLASSIFICATION_TYPE = U
NORAD_CAT_ID   = 67865
ELEMENT_SET_NO = 999
REV_AT_EPOCH   = 381
BSTAR          = .11883251E-2
MEAN_MOTION_DOT = .241694E-2
MEAN_MOTION_DDOT = 0

CCSDS_OMM_VERS = 2.0
CREATION_DATE  = 
ORIGINATOR     = 

OBJECT_NAME    = STARLINK-36780
OBJECT_ID      = 2026-034S
CENTER_NAME    = EARTH
REF_FRAME      = TEME
TIME_SYSTEM    = UTC
MEAN_ELEMENT_THEORY = SGP/SGP4

EPOCH          = 2026-03-08T21:32:47.622624
MEAN_MOTION    = 15.81008541
ECCENTRICITY   = .00011109
INCLINATION    = 53.1592
RA_OF_ASC_NODE = 215.1820
ARG_OF_PERICENTER = 109.8030
MEAN_ANOMALY   = 250.3112

EPHEMERIS_TYPE = 0
CLASSIFICATION_TYPE = U
NORAD_CAT_ID   = 67866
ELEMENT_SET_NO = 999
REV_AT_EPOCH   = 381
BSTAR          = .17838371E-2
MEAN_MOTION_DOT = .369147E-2
MEAN_MOTION_DDOT = 0

CCSDS_OMM_VERS = 2.0
CREATION_DATE  = 
ORIGINATOR     = 

OBJECT_NAME    = STARLINK-36761
OBJECT_ID      = 2026-034T
CENTER_NAME    = EARTH
REF_FRAME      = TEME
TIME_SYSTEM    = UTC
MEAN_ELEMENT_THEORY = SGP/SGP4

EPOCH          = 2026-03-08T21:31:42.430368
MEAN_MOTION    = 15.80998449
ECCENTRICITY   = .00008107
INCLINATION    = 53.1596
RA_OF_ASC_NODE = 215.1774
ARG_OF_PERICENTER = 98.3071
MEAN_ANOMALY   = 261.8043

EPHEMERIS_TYPE = 0
CLASSIFICATION_TYPE = U
NORAD_CAT_ID   = 67867
ELEMENT_SET_NO = 999
REV_AT_EPOCH   = 381
BSTAR          = .13540605E-2
MEAN_MOTION_DOT = .276896E-2
MEAN_MOTION_DDOT = 0

CCSDS_OMM_VERS = 2.0
CREATION_DATE  = 
ORIGINATOR     = 

OBJECT_NAME    = STARLINK-36762
OBJECT_ID      = 2026-034U
CENTER_NAME    = EARTH
REF_FRAME      = TEME
TIME_SYSTEM    = UTC
MEAN_ELEMENT_THEORY = SGP/SGP4

EPOCH          = 2026-03-08T21:30:37.577664
MEAN_MOTION    = 15.81018585
ECCENTRICITY   = .0000989
INCLINATION    = 53.1592
RA_OF_ASC_NODE = 215.1731
ARG_OF_PERICENTER = 105.8890
MEAN_ANOMALY   = 254.2242

EPHEMERIS_TYPE = 0
CLASSIFICATION_TYPE = U
NORAD_CAT_ID   = 67868
ELEMENT_SET_NO = 999
REV_AT_EPOCH   = 381
BSTAR          = .16332354E-2
MEAN_MOTION_DOT = .336798E-2
MEAN_MOTION_DDOT = 0

CCSDS_OMM_VERS = 2.0
CREATION_DATE  = 
ORIGINATOR     = 

OBJECT_NAME    = STARLINK-36779
OBJECT_ID      = 2026-034V
CENTER_NAME    = EARTH
REF_FRAME      = TEME
TIME_SYSTEM    = UTC
MEAN_ELEMENT_THEORY = SGP/SGP4

EPOCH          = 2026-03-08T21:29:32.874432
MEAN_MOTION    = 15.81021469
ECCENTRICITY   = .00009285
INCLINATION    = 53.1592
RA_OF_ASC_NODE = 215.1675
ARG_OF_PERICENTER = 82.9006
MEAN_ANOMALY   = 277.2122

EPHEMERIS_TYPE = 0
CLASSIFICATION_TYPE = U
NORAD_CAT_ID   = 67869
ELEMENT_SET_NO = 999
REV_AT_EPOCH   = 381
BSTAR          = .17817656E-2
MEAN_MOTION_DOT = .368933E-2
MEAN_MOTION_DDOT = 0

CCSDS_OMM_VERS = 2.0
CREATION_DATE  = 
ORIGINATOR     = 

OBJECT_NAME    = STARLINK-36770
OBJECT_ID      = 2026-034W
CENTER_NAME    = EARTH
REF_FRAME      = TEME
TIME_SYSTEM    = UTC
MEAN_ELEMENT_THEORY = SGP/SGP4

EPOCH          = 2026-03-08T19:56:21.289344
MEAN_MOTION    = 15.80994863
ECCENTRICITY   = .00015381
INCLINATION    = 53.1596
RA_OF_ASC_NODE = 215.4738
ARG_OF_PERICENTER = 77.1095
MEAN_ANOMALY   = 283.0100

EPHEMERIS_TYPE = 0
CLASSIFICATION_TYPE = U
NORAD_CAT_ID   = 67870
ELEMENT_SET_NO = 999
REV_AT_EPOCH   = 380
BSTAR          = .15300399E-2
MEAN_MOTION_DOT = .31429E-2
MEAN_MOTION_DDOT = 0

CCSDS_OMM_VERS = 2.0
CREATION_DATE  = 
ORIGINATOR     = 

OBJECT_NAME    = STARLINK-36769
OBJECT_ID      = 2026-034X
CENTER_NAME    = EARTH
REF_FRAME      = TEME
TIME_SYSTEM    = UTC
MEAN_ELEMENT_THEORY = SGP/SGP4

EPOCH          = 2026-03-08T21:28:28.200576
MEAN_MOTION    = 15.81003944
ECCENTRICITY   = .00010051
INCLINATION    = 53.1595
RA_OF_ASC_NODE = 215.1621
ARG_OF_PERICENTER = 32.9143
MEAN_ANOMALY   = 327.1942

EPHEMERIS_TYPE = 0
CLASSIFICATION_TYPE = U
NORAD_CAT_ID   = 67871
ELEMENT_SET_NO = 999
REV_AT_EPOCH   = 381
BSTAR          = .1637623E-2
MEAN_MOTION_DOT = .337504E-2
MEAN_MOTION_DDOT = 0

CCSDS_OMM_VERS = 2.0
CREATION_DATE  = 
ORIGINATOR     = 

OBJECT_NAME    = STARLINK-36786
OBJECT_ID      = 2026-034Y
CENTER_NAME    = EARTH
REF_FRAME      = TEME
TIME_SYSTEM    = UTC
MEAN_ELEMENT_THEORY = SGP/SGP4

EPOCH          = 2026-03-08T21:26:18.737952
MEAN_MOTION    = 15.80963250
ECCENTRICITY   = .00014439
INCLINATION    = 53.1598
RA_OF_ASC_NODE = 215.1525
ARG_OF_PERICENTER = 74.0327
MEAN_ANOMALY   = 286.0855

EPHEMERIS_TYPE = 0
CLASSIFICATION_TYPE = U
NORAD_CAT_ID   = 67872
ELEMENT_SET_NO = 999
REV_AT_EPOCH   = 381
BSTAR          = .11187174E-2
MEAN_MOTION_DOT = .226941E-2
MEAN_MOTION_DDOT = 0

CCSDS_OMM_VERS = 2.0
CREATION_DATE  = 
ORIGINATOR     = 

OBJECT_NAME    = STARLINK-36783
OBJECT_ID      = 2026-034Z
CENTER_NAME    = EARTH
REF_FRAME      = TEME
TIME_SYSTEM    = UTC
MEAN_ELEMENT_THEORY = SGP/SGP4

EPOCH          = 2026-03-08T21:25:13.679616
MEAN_MOTION    = 15.80991855
ECCENTRICITY   = .00008118
INCLINATION    = 53.1595
RA_OF_ASC_NODE = 215.1467
ARG_OF_PERICENTER = 106.2526
MEAN_ANOMALY   = 253.8587

EPHEMERIS_TYPE = 0
CLASSIFICATION_TYPE = U
NORAD_CAT_ID   = 67873
ELEMENT_SET_NO = 999
REV_AT_EPOCH   = 381
BSTAR          = .13882559E-2
MEAN_MOTION_DOT = .284059E-2
MEAN_MOTION_DDOT = 0

CCSDS_OMM_VERS = 2.0
CREATION_DATE  = 
ORIGINATOR     = 

OBJECT_NAME    = STARLINK-36730
OBJECT_ID      = 2026-034AA
CENTER_NAME    = EARTH
REF_FRAME      = TEME
TIME_SYSTEM    = UTC
MEAN_ELEMENT_THEORY = SGP/SGP4

EPOCH          = 2026-03-08T21:24:08.837280
MEAN_MOTION    = 15.81020028
ECCENTRICITY   = .00013458
INCLINATION    = 53.1596
RA_OF_ASC_NODE = 215.1421
ARG_OF_PERICENTER = 46.6952
MEAN_ANOMALY   = 313.4182

EPHEMERIS_TYPE = 0
CLASSIFICATION_TYPE = U
NORAD_CAT_ID   = 67874
ELEMENT_SET_NO = 999
REV_AT_EPOCH   = 381
BSTAR          = .17762648E-2
MEAN_MOTION_DOT = .367705E-2
MEAN_MOTION_DDOT = 0

CCSDS_OMM_VERS = 2.0
CREATION_DATE  = 
ORIGINATOR     = 

OBJECT_NAME    = STARLINK-36727
OBJECT_ID      = 2026-034AB
CENTER_NAME    = EARTH
REF_FRAME      = TEME
TIME_SYSTEM    = UTC
MEAN_ELEMENT_THEORY = SGP/SGP4

EPOCH          = 2026-03-08T21:23:04.053696
MEAN_MOTION    = 15.81008674
ECCENTRICITY   = .0001121
INCLINATION    = 53.1597
RA_OF_ASC_NODE = 215.1364
ARG_OF_PERICENTER = 50.3906
MEAN_ANOMALY   = 309.7215

EPHEMERIS_TYPE = 0
CLASSIFICATION_TYPE = U
NORAD_CAT_ID   = 67875
ELEMENT_SET_NO = 999
REV_AT_EPOCH   = 381
BSTAR          = .167536E-2
MEAN_MOTION_DOT = .345704E-2
MEAN_MOTION_DDOT = 0

CCSDS_OMM_VERS = 2.0
CREATION_DATE  = 
ORIGINATOR     = 

OBJECT_NAME    = STARLINK-36743
OBJECT_ID      = 2026-034AC
CENTER_NAME    = EARTH
REF_FRAME      = TEME
TIME_SYSTEM    = UTC
MEAN_ELEMENT_THEORY = SGP/SGP4

EPOCH          = 2026-03-08T21:21:59.380704
MEAN_MOTION    = 15.80954822
ECCENTRICITY   = .00009922
INCLINATION    = 53.1601
RA_OF_ASC_NODE = 215.1310
ARG_OF_PERICENTER = 73.4545
MEAN_ANOMALY   = 286.6587

EPHEMERIS_TYPE = 0
CLASSIFICATION_TYPE = U
NORAD_CAT_ID   = 67876
ELEMENT_SET_NO = 999
REV_AT_EPOCH   = 381
BSTAR          = .10222898E-2
MEAN_MOTION_DOT = .20675E-2
MEAN_MOTION_DDOT = 0

